{
    "links": {
        "self": "http://www.neowsapp.com/rest/v1/neo/3712620?api_key=iIulBulltgU6a56xZRHN4H3l9WmuAYTsLGpBGhQ2"
    },
    "id": "3712620",
    "neo_reference_id": "3712620",
    "name": "(2015 DA200)",
    "designation": "2015 DA200",
    "nasa_jpl_url": "http://ssd.jpl.nasa.gov/sbdb.cgi?sstr=3712620",
    "absolute_magnitude_h": 23.8,
    "estimated_diameter": {
        "kilometers": {
            "estimated_diameter_min": 0.046190746,
            "estimated_diameter_max": 0.1032856481
        },
        "meters": {
            "estimated_diameter_min": 46.1907460282,
            "estimated_diameter_max": 103.2856480504
        },
        "miles": {
            "estimated_diameter_min": 0.0287015901,
            "estimated_diameter_max": 0.0641787064
        },
        "feet": {
            "estimated_diameter_min": 151.544447199,
            "estimated_diameter_max": 338.8636855496
        }
    },
    "is_potentially_hazardous_asteroid": false,
    "close_approach_data": [
        {
            "close_approach_date": "2006-11-25",
            "close_approach_date_full": "2006-Nov-25 01:00",
            "epoch_date_close_approach": 1164416400000,
            "relative_velocity": {
                "kilometers_per_second": "19.767699136",
                "kilometers_per_hour": "71163.7168894369",
                "miles_per_hour": "44218.3661972171"
            },
            "miss_distance": {
                "astronomical": "0.4624381052",
                "lunar": "179.8884229228",
                "kilometers": "69179755.544755924",
                "miles": "42986306.7939787912"
            },
            "orbiting_body": "Earth"
        },
        {
            "close_approach_date": "2010-12-18",
            "close_approach_date_full": "2010-Dec-18 10:20",
            "epoch_date_close_approach": 1292667600000,
            "relative_velocity": {
                "kilometers_per_second": "10.9077186197",
                "kilometers_per_hour": "39267.7870307558",
                "miles_per_hour": "24399.4757803049"
            },
            "miss_distance": {
                "astronomical": "0.23433417",
                "lunar": "91.15599213",
                "kilometers": "35055892.7002179",
                "miles": "21782721.64569102"
            },
            "orbiting_body": "Earth"
        },
        {
            "close_approach_date": "2015-01-16",
            "close_approach_date_full": "2015-Jan-16 04:47",
            "epoch_date_close_approach": 1421383620000,
            "relative_velocity": {
                "kilometers_per_second": "6.1886730379",
                "kilometers_per_hour": "22279.2229364034",
                "miles_per_hour": "13843.4427184558"
            },
            "miss_distance": {
                "astronomical": "0.1140866225",
                "lunar": "44.3796961525",
                "kilometers": "17067115.721494075",
                "miles": "10605013.948305235"
            },
            "orbiting_body": "Earth"
        },
        {
            "close_approach_date": "2021-01-20",
            "close_approach_date_full": "2021-Jan-20 13:45",
            "epoch_date_close_approach": 1611150300000,
            "relative_velocity": {
                "kilometers_per_second": "5.4066050298",
                "kilometers_per_hour": "19463.7781071014",
                "miles_per_hour": "12094.0347910487"
            },
            "miss_distance": {
                "astronomical": "1.6827499749",
                "lunar": "654.5897402361",
                "kilometers": "251735811.987593463",
                "miles": "156421380.2133092694"
            },
            "orbiting_body": "Juptr"
        }
    ],
    "orbital_data": {
        "orbit_id": "7",
        "orbit_determination_date": "2017-04-06 08:35:21",
        "first_observation_date": "2015-02-20",
        "last_observation_date": "2015-03-14",
        "data_arc_in_days": 22,
        "observations_used": 17,
        "orbit_uncertainty": "7",
        "minimum_orbit_intersection": ".115625",
        "jupiter_tisserand_invariant": "3.185",
        "epoch_osculation": "2459000.5",
        "eccentricity": ".5786463007242365",
        "semi_major_axis": "2.537348740529464",
        "inclination": "5.150507831732036",
        "ascending_node_longitude": "354.2727639099829",
        "orbital_period": "1476.279774713413",
        "perihelion_distance": "1.069121278174789",
        "perihelion_argument": "118.7586838703008",
        "aphelion_distance": "4.005576202884138",
        "perihelion_time": "2458506.319593256717",
        "mean_anomaly": "120.5089641373149",
        "mean_motion": ".2438562162581182",
        "equinox": "J2000",
        "orbit_class": {
            "orbit_class_type": "AMO",
            "orbit_class_description": "Near-Earth asteroid orbits similar to that of 1221 Amor",
            "orbit_class_range": "1.017 AU < q (perihelion) < 1.3 AU"
        }
    },
    "is_sentry_object": false
}